COSMOS_2460-732
1 36402U 10007C   23123.63171876 -.00000041  00000+0  00000+0 0  9997
2 36402  65.9126 352.7783 0002487  34.9299 144.5758  2.13106291102516
